{"type": "FeatureCollection", "features": [ {"type": "Feature", "properties": {"norad_id": 38055, "name": "COSMOS 2251 DEB", "group": "cosmos-2251-debris", "lat": -37.721863547650095, "lon": 14.69372431110858, "alt_km": 642.0114976268624, "timestamp": "2025-12-25T09:48:52.687062+00:00", "meta": {"OBJECT_NAME": "COSMOS 2251 DEB", "OBJECT_ID": "1993-036BRM", "EPOCH": "2025-12-23T19:29:54.305376", "MEAN_MOTION": 14.77082596, "ECCENTRICITY": 0.00661115, "INCLINATION": 74.0078, "RA_OF_ASC_NODE": 185.0116, "ARG_OF_PERICENTER": 310.2011, "MEAN_ANOMALY": 64.0463, "EPHEMERIS_TYPE": 0, "CLASSIFICATION_TYPE": "U", "NORAD_CAT_ID": 38055, "ELEMENT_SET_NO": 999, "REV_AT_EPOCH": 60846, "BSTAR": 0.00072215259, "MEAN_MOTION_DOT": 5.255e-05, "MEAN_MOTION_DDOT": 0}, "tle": {"line1": "1 38055U 93036BRM 25357.81243409  .00005255  00000+0  72215-3 0  9991", "line2": "2 38055  74.0078 185.0116 0066111 310.2011  64.0463 14.77082596608460"}}, "geometry": {"type": "Point", "coordinates": [14.69372431110858, -37.721863547650095]}}, {"type": "Feature", "properties": {"norad_id": 38060, "name": "COSMOS 2251 DEB", "group": "cosmos-2251-debris", "lat": -24.869031247891993, "lon": 98.61177333924375, "alt_km": 726.2070575845, "timestamp": "2025-12-25T09:48:52.687071+00:00", "meta": {"OBJECT_NAME": "COSMOS 2251 DEB", "OBJECT_ID": "1993-036BRS", "EPOCH": "2025-12-22T11:59:35.078784", "MEAN_MOTION": 14.63909743, "ECCENTRICITY": 0.00586084, "INCLINATION": 74.043, "RA_OF_ASC_NODE": 276.5721, "ARG_OF_PERICENTER": 20.0647, "MEAN_ANOMALY": 340.2805, "EPHEMERIS_TYPE": 0, "CLASSIFICATION_TYPE": "U", "NORAD_CAT_ID": 38060, "ELEMENT_SET_NO": 999, "REV_AT_EPOCH": 72107, "BSTAR": 0.00053329406, "MEAN_MOTION_DOT": 2.829e-05, "MEAN_MOTION_DDOT": 0}, "tle": {"line1": "1 38060U 93036BRS 25356.49971156  .00002829  00000+0  53329-3 0  9996", "line2": "2 38060  74.0430 276.5721 0058608  20.0647 340.2805 14.63909743721078"}}, "geometry": {"type": "Point", "coordinates": [98.61177333924375, -24.869031247891993]}}, {"type": "Feature", "properties": {"norad_id": 38062, "name": "COSMOS 2251 DEB", "group": "cosmos-2251-debris", "lat": 20.676345053441846, "lon": 78.66218025066222, "alt_km": 586.2684656716037, "timestamp": "2025-12-25T09:48:52.687081+00:00", "meta": {"OBJECT_NAME": "COSMOS 2251 DEB", "OBJECT_ID": "1993-036BRU", "EPOCH": "2025-12-20T12:40:12.328608", "MEAN_MOTION": 14.95206267, "ECCENTRICITY": 0.00129431, "INCLINATION": 74.0088, "RA_OF_ASC_NODE": 274.7346, "ARG_OF_PERICENTER": 42.7602, "MEAN_ANOMALY": 131.9089, "EPHEMERIS_TYPE": 0, "CLASSIFICATION_TYPE": "U", "NORAD_CAT_ID": 38062, "ELEMENT_SET_NO": 999, "REV_AT_EPOCH": 63146, "BSTAR": 0.0014745207, "MEAN_MOTION_DOT": 0.00016237, "MEAN_MOTION_DDOT": 0}, "tle": {"line1": "1 38062U 93036BRU 25354.52792047  .00016237  00000+0  14745-2 0  9996", "line2": "2 38062  74.0088 274.7346 0012943  42.7602 131.9089 14.95206267631464"}}, "geometry": {"type": "Point", "coordinates": [78.66218025066222, 20.676345053441846]}}, {"type": "Feature", "properties": {"norad_id": 38064, "name": "COSMOS 2251 DEB", "group": "cosmos-2251-debris", "lat": 65.57079454054286, "lon": -119.02041326579945, "alt_km": 708.6360817197219, "timestamp": "2025-12-25T09:48:52.687091+00:00", "meta": {"OBJECT_NAME": "COSMOS 2251 DEB", "OBJECT_ID": "1993-036BRW", "EPOCH": "2025-12-24T00:20:31.022880", "MEAN_MOTION": 14.5638999, "ECCENTRICITY": 0.00470717, "INCLINATION": 74.023, "RA_OF_ASC_NODE": 102.7307, "ARG_OF_PERICENTER": 220.4178, "MEAN_ANOMALY": 139.3486, "EPHEMERIS_TYPE": 0, "CLASSIFICATION_TYPE": "U", "NORAD_CAT_ID": 38064, "ELEMENT_SET_NO": 999, "REV_AT_EPOCH": 72029, "BSTAR": 0.0010077447, "MEAN_MOTION_DOT": 4.512e-05, "MEAN_MOTION_DDOT": 0}, "tle": {"line1": "1 38064U 93036BRW 25358.01424795  .00004512  00000+0  10077-2 0  9995", "line2": "2 38064  74.0230 102.7307 0047071 220.4178 139.3486 14.56389990720290"}}, "geometry": {"type": "Point", "coordinates": [-119.02041326579945, 65.57079454054286]}}, {"type": "Feature", "properties": {"norad_id": 38067, "name": "COSMOS 2251 DEB", "group": "cosmos-2251-debris", "lat": -49.96984705172573, "lon": -129.69750096274757, "alt_km": 693.2108183207229, "timestamp": "2025-12-25T09:48:52.687101+00:00", "meta": {"OBJECT_NAME": "COSMOS 2251 DEB", "OBJECT_ID": "1993-036BRZ", "EPOCH": "2025-12-23T23:37:20.127936", "MEAN_MOTION": 14.61165668, "ECCENTRICITY": 0.0069893, "INCLINATION": 74.016, "RA_OF_ASC_NODE": 252.9804, "ARG_OF_PERICENTER": 37.5842, "MEAN_ANOMALY": 339.4482, "EPHEMERIS_TYPE": 0, "CLASSIFICATION_TYPE": "U", "NORAD_CAT_ID": 38067, "ELEMENT_SET_NO": 999, "REV_AT_EPOCH": 62720, "BSTAR": 0.00036242, "MEAN_MOTION_DOT": 1.816e-05, "MEAN_MOTION_DDOT": 0}, "tle": {"line1": "1 38067U 93036BRZ 25357.98426074  .00001816  00000+0  36242-3 0  9992", "line2": "2 38067  74.0160 252.9804 0069893  37.5842 339.4482 14.61165668627202"}}, "geometry": {"type": "Point", "coordinates": [-129.69750096274757, -49.96984705172573]}}, {"type": "Feature", "properties": {"norad_id": 38068, "name": "COSMOS 2251 DEB", "group": "cosmos-2251-debris", "lat": 5.400725505324352, "lon": -73.46556507376897, "alt_km": 756.4460848962117, "timestamp": "2025-12-25T09:48:52.687110+00:00", "meta": {"OBJECT_NAME": "COSMOS 2251 DEB", "OBJECT_ID": "1993-036BSA", "EPOCH": "2025-11-26T00:12:22.263264", "MEAN_MOTION": 14.35960004, "ECCENTRICITY": 0.00240903, "INCLINATION": 74.0219, "RA_OF_ASC_NODE": 338.9788, "ARG_OF_PERICENTER": 72.1007, "MEAN_ANOMALY": 288.2769, "EPHEMERIS_TYPE": 0, "CLASSIFICATION_TYPE": "U", "NORAD_CAT_ID": 38068, "ELEMENT_SET_NO": 999, "REV_AT_EPOCH": 66406, "BSTAR": 0.00028750999, "MEAN_MOTION_DOT": 8.11e-06, "MEAN_MOTION_DDOT": 0}, "tle": {"line1": "1 38068U 93036BSA 25330.00859101  .00000811  00000+0  28751-3 0  9998", "line2": "2 38068  74.0219 338.9788 0024090  72.1007 288.2769 14.35960004664064"}}, "geometry": {"type": "Point", "coordinates": [-73.46556507376897, 5.400725505324352]}}, {"type": "Feature", "properties": {"norad_id": 38197, "name": "COSMOS 2251 DEB", "group": "cosmos-2251-debris", "lat": -54.01767941000611, "lon": -51.21924132448761, "alt_km": 661.3749138850335, "timestamp": "2025-12-25T09:48:52.687120+00:00", "meta": {"OBJECT_NAME": "COSMOS 2251 DEB", "OBJECT_ID": "1993-036BSM", "EPOCH": "2025-12-22T15:18:58.604256", "MEAN_MOTION": 14.74460834, "ECCENTRICITY": 0.01247811, "INCLINATION": 73.938, "RA_OF_ASC_NODE": 337.6017, "ARG_OF_PERICENTER": 212.6548, "MEAN_ANOMALY": 146.6868, "EPHEMERIS_TYPE": 0, "CLASSIFICATION_TYPE": "U", "NORAD_CAT_ID": 38197, "ELEMENT_SET_NO": 999, "REV_AT_EPOCH": 85901, "BSTAR": 0.0030808591, "MEAN_MOTION_DOT": 0.00023252, "MEAN_MOTION_DDOT": 0}, "tle": {"line1": "1 38197U 93036BSM 25356.63817829  .00023252  00000+0  30809-2 0  9999", "line2": "2 38197  73.9380 337.6017 0124781 212.6548 146.6868 14.74460834859011"}}, "geometry": {"type": "Point", "coordinates": [-51.21924132448761, -54.01767941000611]}}, {"type": "Feature", "properties": {"norad_id": 38199, "name": "COSMOS 2251 DEB", "group": "cosmos-2251-debris", "lat": 37.41683517460312, "lon": -151.3433168987479, "alt_km": 1287.987765143651, "timestamp": "2025-12-25T09:48:52.687130+00:00", "meta": {"OBJECT_NAME": "COSMOS 2251 DEB", "OBJECT_ID": "1993-036BSP", "EPOCH": "2025-12-23T11:22:51.988512", "MEAN_MOTION": 13.64808888, "ECCENTRICITY": 0.03701637, "INCLINATION": 73.9557, "RA_OF_ASC_NODE": 44.5515, "ARG_OF_PERICENTER": 328.9029, "MEAN_ANOMALY": 29.0633, "EPHEMERIS_TYPE": 0, "CLASSIFICATION_TYPE": "U", "NORAD_CAT_ID": 38199, "ELEMENT_SET_NO": 999, "REV_AT_EPOCH": 61168, "BSTAR": 0.00059794488, "MEAN_MOTION_DOT": 7.45e-06, "MEAN_MOTION_DDOT": 0}, "tle": {"line1": "1 38199U 93036BSP 25357.47421283  .00000745  00000+0  59794-3 0  9996", "line2": "2 38199  73.9557  44.5515 0370163 328.9029  29.0633 13.64808888611684"}}, "geometry": {"type": "Point", "coordinates": [-151.3433168987479, 37.41683517460312]}}, {"type": "Feature", "properties": {"norad_id": 38208, "name": "COSMOS 2251 DEB", "group": "cosmos-2251-debris", "lat": -22.420227790929488, "lon": 46.94920047357624, "alt_km": 621.0097340337279, "timestamp": "2025-12-25T09:48:52.687140+00:00", "meta": {"OBJECT_NAME": "COSMOS 2251 DEB", "OBJECT_ID": "1993-036BSY", "EPOCH": "2025-12-25T03:35:13.445952", "MEAN_MOTION": 14.84325765, "ECCENTRICITY": 7.93e-05, "INCLINATION": 74.0039, "RA_OF_ASC_NODE": 54.2618, "ARG_OF_PERICENTER": 96.7904, "MEAN_ANOMALY": 293.9692, "EPHEMERIS_TYPE": 0, "CLASSIFICATION_TYPE": "U", "NORAD_CAT_ID": 38208, "ELEMENT_SET_NO": 999, "REV_AT_EPOCH": 71343, "BSTAR": 0.0022332, "MEAN_MOTION_DOT": 0.0001876, "MEAN_MOTION_DDOT": 0}, "tle": {"line1": "1 38208U 93036BSY 25359.14946118  .00018760  00000+0  22332-2 0  9995", "line2": "2 38208  74.0039  54.2618 0000793  96.7904 293.9692 14.84325765713439"}}, "geometry": {"type": "Point", "coordinates": [46.94920047357624, -22.420227790929488]}}, {"type": "Feature", "properties": {"norad_id": 38212, "name": "COSMOS 2251 DEB", "group": "cosmos-2251-debris", "lat": -5.1822582782902, "lon": 50.274880268674465, "alt_km": 672.0733893662255, "timestamp": "2025-12-25T09:48:52.687150+00:00", "meta": {"OBJECT_NAME": "COSMOS 2251 DEB", "OBJECT_ID": "1993-036BTC", "EPOCH": "2025-12-19T04:21:29.490912", "MEAN_MOTION": 14.77722254, "ECCENTRICITY": 0.0092064, "INCLINATION": 74.0528, "RA_OF_ASC_NODE": 63.9673, "ARG_OF_PERICENTER": 129.0689, "MEAN_ANOMALY": 231.8724, "EPHEMERIS_TYPE": 0, "CLASSIFICATION_TYPE": "U", "NORAD_CAT_ID": 38212, "ELEMENT_SET_NO": 999, "REV_AT_EPOCH": 81405, "BSTAR": 0.00027193732, "MEAN_MOTION_DOT": 2.056e-05, "MEAN_MOTION_DDOT": 0}, "tle": {"line1": "1 38212U 93036BTC 25353.18159133  .00002056  00000+0  27194-3 0  9994", "line2": "2 38212  74.0528  63.9673 0092064 129.0689 231.8724 14.77722254814050"}}, "geometry": {"type": "Point", "coordinates": [50.274880268674465, -5.1822582782902]}}]}